[
    {
        "Altitude(m)": 566213.8169053824,
        "Argument of Periapsis(deg)": -0.03013754771062987,
        "Eccentricity": 0.0,
        "Inclination(deg)": 97.0,
        "Latitude(deg)": 2.024368588937971,
        "Longitude(deg)": -162.8893731411311,
        "Mean Anomaly(deg)": 177.88099102558328,
        "RAAN(deg)": 120.00792940482468,
        "Satellite Name": "Starlink Shell 3 1837",
        "Satellite Number": 1837,
        "Semi-Major Axis(m)": 6938478.169268562,
        "Time(s)": 760
    },
    {
        "Altitude(m)": 566283.044947768,
        "Argument of Periapsis(deg)": -0.030534094391032898,
        "Eccentricity": 0.0,
        "Inclination(deg)": 97.0,
        "Latitude(deg)": 1.3999473623603136,
        "Longitude(deg)": -163.0073701826545,
        "Mean Anomaly(deg)": 178.50646722328835,
        "RAAN(deg)": 120.00803373909866,
        "Satellite Name": "Starlink Shell 3 1837",
        "Satellite Number": 1837,
        "Semi-Major Axis(m)": 6938478.169268562,
        "Time(s)": 770
    },
    {
        "Altitude(m)": 566356.5843500545,
        "Argument of Periapsis(deg)": -0.030930641071435925,
        "Eccentricity": 0.0,
        "Inclination(deg)": 97.0,
        "Latitude(deg)": 0.7755340765414721,
        "Longitude(deg)": -163.1253254840132,
        "Mean Anomaly(deg)": 179.13194342099342,
        "RAAN(deg)": 120.00813807337268,
        "Satellite Name": "Starlink Shell 3 1837",
        "Satellite Number": 1837,
        "Semi-Major Axis(m)": 6938478.169268562,
        "Time(s)": 780
    },
    {
        "Altitude(m)": 566434.4287896351,
        "Argument of Periapsis(deg)": -0.031327187751838945,
        "Eccentricity": 0.0,
        "Inclination(deg)": 97.0,
        "Latitude(deg)": 0.15113173205986716,
        "Longitude(deg)": -163.24325662064012,
        "Mean Anomaly(deg)": 179.75741961869846,
        "RAAN(deg)": 120.0082424076467,
        "Satellite Name": "Starlink Shell 3 1837",
        "Satellite Number": 1837,
        "Semi-Major Axis(m)": 6938478.169268562,
        "Time(s)": 790
    },
    {
        "Altitude(m)": 566516.5698633749,
        "Argument of Periapsis(deg)": -0.031723734432241975,
        "Eccentricity": 0.0,
        "Inclination(deg)": 97.0,
        "Latitude(deg)": -0.4732566728548061,
        "Longitude(deg)": -163.36118164927123,
        "Mean Anomaly(deg)": 180.38289581640345,
        "RAAN(deg)": 120.0083467419207,
        "Satellite Name": "Starlink Shell 3 1837",
        "Satellite Number": 1837,
        "Semi-Major Axis(m)": 6938478.169268562,
        "Time(s)": 800
    },
    {
        "Altitude(m)": 566602.9970885186,
        "Argument of Periapsis(deg)": -0.032120281112645,
        "Eccentricity": 0.0,
        "Inclination(deg)": 97.0,
        "Latitude(deg)": -1.0976281422531056,
        "Longitude(deg)": -163.47911862031862,
        "Mean Anomaly(deg)": 181.00837201410857,
        "RAAN(deg)": 120.00845107619472,
        "Satellite Name": "Starlink Shell 3 1837",
        "Satellite Number": 1837,
        "Semi-Major Axis(m)": 6938478.169268562,
        "Time(s)": 810
    },
    {
        "Altitude(m)": 566693.6979046772,
        "Argument of Periapsis(deg)": -0.03251682779304802,
        "Eccentricity": 0.0,
        "Inclination(deg)": 97.0,
        "Latitude(deg)": -1.7219796823968456,
        "Longitude(deg)": -163.5970850902316,
        "Mean Anomaly(deg)": 181.63384821181359,
        "RAAN(deg)": 120.00855541046872,
        "Satellite Name": "Starlink Shell 3 1837",
        "Satellite Number": 1837,
        "Semi-Major Axis(m)": 6938478.169268562,
        "Time(s)": 820
    },
    {
        "Altitude(m)": 566788.6576768298,
        "Argument of Periapsis(deg)": -0.032913374473451044,
        "Eccentricity": 0.0,
        "Inclination(deg)": 97.0,
        "Latitude(deg)": -2.346308301686235,
        "Longitude(deg)": -163.71509914675056,
        "Mean Anomaly(deg)": 182.25932440951863,
        "RAAN(deg)": 120.00865974474274,
        "Satellite Name": "Starlink Shell 3 1837",
        "Satellite Number": 1837,
        "Semi-Major Axis(m)": 6938478.169268562,
        "Time(s)": 830
    },
    {
        "Altitude(m)": 566887.8596994295,
        "Argument of Periapsis(deg)": -0.03330992115385407,
        "Eccentricity": 0.0,
        "Inclination(deg)": 97.0,
        "Latitude(deg)": -2.970611010583428,
        "Longitude(deg)": -163.83317892133957,
        "Mean Anomaly(deg)": 182.88480060722367,
        "RAAN(deg)": 120.00876407901674,
        "Satellite Name": "Starlink Shell 3 1837",
        "Satellite Number": 1837,
        "Semi-Major Axis(m)": 6938478.169268562,
        "Time(s)": 840
    },
    {
        "Altitude(m)": 566991.2852015231,
        "Argument of Periapsis(deg)": -0.0337064678342571,
        "Eccentricity": 0.0,
        "Inclination(deg)": 97.0,
        "Latitude(deg)": -3.5948848215294413,
        "Longitude(deg)": -163.95134210170477,
        "Mean Anomaly(deg)": 183.5102768049287,
        "RAAN(deg)": 120.00886841329077,
        "Satellite Name": "Starlink Shell 3 1837",
        "Satellite Number": 1837,
        "Semi-Major Axis(m)": 6938478.169268562,
        "Time(s)": 850
    },
    {
        "Altitude(m)": 567098.913352948,
        "Argument of Periapsis(deg)": -0.03410301451466012,
        "Eccentricity": 0.0,
        "Inclination(deg)": 97.0,
        "Latitude(deg)": -4.219126748847475,
        "Longitude(deg)": -164.06960712540143,
        "Mean Anomaly(deg)": 184.13575300263375,
        "RAAN(deg)": 120.00897274756477,
        "Satellite Name": "Starlink Shell 3 1837",
        "Satellite Number": 1837,
        "Semi-Major Axis(m)": 6938478.169268562,
        "Time(s)": 860
    },
    {
        "Altitude(m)": 567210.7212715436,
        "Argument of Periapsis(deg)": -0.034499561195063144,
        "Eccentricity": 0.0,
        "Inclination(deg)": 97.0,
        "Latitude(deg)": -4.843333808638472,
        "Longitude(deg)": -164.1879918521376,
        "Mean Anomaly(deg)": 184.7612292003388,
        "RAAN(deg)": 120.00907708183878,
        "Satellite Name": "Starlink Shell 3 1837",
        "Satellite Number": 1837,
        "Semi-Major Axis(m)": 6938478.169268562,
        "Time(s)": 870
    },
    {
        "Altitude(m)": 567326.6840314525,
        "Argument of Periapsis(deg)": -0.03489610787546617,
        "Eccentricity": 0.0,
        "Inclination(deg)": 97.0,
        "Latitude(deg)": -5.467503018656133,
        "Longitude(deg)": -164.30651475771987,
        "Mean Anomaly(deg)": 185.3867053980438,
        "RAAN(deg)": 120.00918141611278,
        "Satellite Name": "Starlink Shell 3 1837",
        "Satellite Number": 1837,
        "Semi-Major Axis(m)": 6938478.169268562,
        "Time(s)": 880
    },
    {
        "Altitude(m)": 567446.7746724191,
        "Argument of Periapsis(deg)": -0.0352926545558692,
        "Eccentricity": 0.0,
        "Inclination(deg)": 97.0,
        "Latitude(deg)": -6.0916313981674355,
        "Longitude(deg)": -164.42519444724968,
        "Mean Anomaly(deg)": 186.0121815957489,
        "RAAN(deg)": 120.00928575038678,
        "Satellite Name": "Starlink Shell 3 1837",
        "Satellite Number": 1837,
        "Semi-Major Axis(m)": 6938478.169268562,
        "Time(s)": 890
    },
    {
        "Altitude(m)": 567570.9642101256,
        "Argument of Periapsis(deg)": -0.035689201236272214,
        "Eccentricity": 0.0,
        "Inclination(deg)": 97.0,
        "Latitude(deg)": -6.715715967791828,
        "Longitude(deg)": -164.54404916857575,
        "Mean Anomaly(deg)": 186.63765779345394,
        "RAAN(deg)": 120.00939008466078,
        "Satellite Name": "Starlink Shell 3 1837",
        "Satellite Number": 1837,
        "Semi-Major Axis(m)": 6938478.169268562,
        "Time(s)": 900
    },
    {
        "Altitude(m)": 567699.2216475734,
        "Argument of Periapsis(deg)": -0.036085747916675244,
        "Eccentricity": 0.0,
        "Inclination(deg)": 97.0,
        "Latitude(deg)": -7.339753749314511,
        "Longitude(deg)": -164.6630978389138,
        "Mean Anomaly(deg)": 187.26313399115895,
        "RAAN(deg)": 120.0094944189348,
        "Satellite Name": "Starlink Shell 3 1837",
        "Satellite Number": 1837,
        "Semi-Major Axis(m)": 6938478.169268562,
        "Time(s)": 910
    },
    {
        "Altitude(m)": 567831.513987479,
        "Argument of Periapsis(deg)": -0.03648229459707827,
        "Eccentricity": 0.0,
        "Inclination(deg)": 97.0,
        "Latitude(deg)": -7.963741765476085,
        "Longitude(deg)": -164.7823595589219,
        "Mean Anomaly(deg)": 187.88861018886408,
        "RAAN(deg)": 120.0095987532088,
        "Satellite Name": "Starlink Shell 3 1837",
        "Satellite Number": 1837,
        "Semi-Major Axis(m)": 6938478.169268562,
        "Time(s)": 920
    },
    {
        "Altitude(m)": 567967.806245642,
        "Argument of Periapsis(deg)": -0.0368788412774813,
        "Eccentricity": 0.0,
        "Inclination(deg)": 97.0,
        "Latitude(deg)": -8.587677039732142,
        "Longitude(deg)": -164.9018531271454,
        "Mean Anomaly(deg)": 188.5140863865691,
        "RAAN(deg)": 120.00970308748282,
        "Satellite Name": "Starlink Shell 3 1837",
        "Satellite Number": 1837,
        "Semi-Major Axis(m)": 6938478.169268562,
        "Time(s)": 930
    },
    {
        "Altitude(m)": 568108.0614653956,
        "Argument of Periapsis(deg)": -0.037275387957884314,
        "Eccentricity": 0.0,
        "Inclination(deg)": 97.0,
        "Latitude(deg)": -9.211556595978946,
        "Longitude(deg)": -165.02159806774384,
        "Mean Anomaly(deg)": 189.13956258427407,
        "RAAN(deg)": 120.00980742175683,
        "Satellite Name": "Starlink Shell 3 1837",
        "Satellite Number": 1837,
        "Semi-Major Axis(m)": 6938478.169268562,
        "Time(s)": 940
    }
]